{
  "norad_id": 62971,
  "name": "HULIANWANG DIGUI-11",
  "history": [
    {
      "epoch": "2026-04-11T20:26:29.776128Z",
      "apogee_km": 1150.2000657204253,
      "perigee_km": 1148.4115453098348,
      "latitude_deg": -2.1868081420283633e-05,
      "longitude_deg": -32.93957089926676,
      "height_km": 1149.362961309611,
      "semi_major_axis_km": 7527.442805515129,
      "eccentricity": 0.0001188,
      "inclination_deg": 49.9988,
      "raan_deg": 113.7498,
      "arg_perigee_deg": 300.1974,
      "mean_anomaly_deg": 59.878,
      "mean_motion_rev_day": 13.29326203
    },
    {
      "epoch": "2026-04-13T06:43:24.331008Z",
      "apogee_km": 1150.205943025303,
      "perigee_km": 1148.404626086609,
      "latitude_deg": 7.387789718203125e-06,
      "longitude_deg": 166.30153659710783,
      "height_km": 1149.2929462795091,
      "semi_major_axis_km": 7527.442284555956,
      "eccentricity": 0.00011965,
      "inclination_deg": 49.9989,
      "raan_deg": 108.6261,
      "arg_perigee_deg": 305.2064,
      "mean_anomaly_deg": 54.8696,
      "mean_motion_rev_day": 13.29326341
    },
    {
      "epoch": "2026-04-14T18:48:34.367904Z",
      "apogee_km": 1150.2140408067016,
      "perigee_km": 1148.3954108857379,
      "latitude_deg": -4.506235718547987e-05,
      "longitude_deg": -21.865630328088294,
      "height_km": 1149.2216479779954,
      "semi_major_axis_km": 7527.44172584622,
      "eccentricity": 0.0001208,
      "inclination_deg": 49.9991,
      "raan_deg": 103.2328,
      "arg_perigee_deg": 310.451,
      "mean_anomaly_deg": 49.6256,
      "mean_motion_rev_day": 13.29326489
    },
    {
      "epoch": "2026-04-15T20:04:11.389152Z",
      "apogee_km": 1150.218353393464,
      "perigee_km": 1148.390690591923,
      "latitude_deg": 4.0954904182764976e-06,
      "longitude_deg": -45.58254547623736,
      "height_km": 1149.1758859917024,
      "semi_major_axis_km": 7527.441521992693,
      "eccentricity": 0.0001214,
      "inclination_deg": 49.9993,
      "raan_deg": 99.4575,
      "arg_perigee_deg": 314.06,
      "mean_anomaly_deg": 46.0172,
      "mean_motion_rev_day": 13.29326543
    },
    {
      "epoch": "2026-04-16T19:31:32.905920Z",
      "apogee_km": 1150.2219698687377,
      "perigee_km": 1148.3867796615705,
      "latitude_deg": 4.6711832934871175e-05,
      "longitude_deg": -41.8911639731918,
      "height_km": 1149.1355344665847,
      "semi_major_axis_km": 7527.441374765154,
      "eccentricity": 0.0001219,
      "inclination_deg": 49.9994,
      "raan_deg": 95.9518,
      "arg_perigee_deg": 317.4196,
      "mean_anomaly_deg": 42.6582,
      "mean_motion_rev_day": 13.29326582
    }
  ]
}